{
  "norad_id": 53981,
  "name": "STARLINK-5149",
  "history": [
    {
      "epoch": "2026-03-28T08:26:16.144800Z",
      "apogee_km": 540.6821443747585,
      "perigee_km": 538.8295326726011,
      "latitude_deg": -4.555974414197634e-05,
      "longitude_deg": 167.78043154200452,
      "height_km": 540.6410188685292,
      "semi_major_axis_km": 6917.8928385236795,
      "eccentricity": 0.0001339,
      "inclination_deg": 53.2182,
      "raan_deg": 120.121,
      "arg_perigee_deg": 89.3415,
      "mean_anomaly_deg": 270.773,
      "mean_motion_rev_day": 15.08835927
    },
    {
      "epoch": "2026-03-30T04:57:04.025376Z",
      "apogee_km": 540.6882642521796,
      "perigee_km": 538.8501765694164,
      "latitude_deg": -2.6386661412020132e-05,
      "longitude_deg": -150.07485238910533,
      "height_km": 540.6493146224929,
      "semi_major_axis_km": 6917.906220410798,
      "eccentricity": 0.00013285,
      "inclination_deg": 53.2167,
      "raan_deg": 111.7933,
      "arg_perigee_deg": 89.0285,
      "mean_anomaly_deg": 271.0859,
      "mean_motion_rev_day": 15.08831549
    }
  ]
}